LIZZIESAT-2 (LS-2)      
1 62383U 24247G   26068.49140277  .00009388  00000+0  34517-3 0  9997
2 62383  44.9909 117.0823 0004092 327.5136  32.5495 15.28222796 67716
STARLINK-35310          
1 66183U 25243G   26068.71237396  .00015942  00000+0  54926-3 0  9999
2 66183  53.1576 245.4025 0000850 101.4855 258.6242 15.30197414 20659
